CHECKMATE 6             
1 56166U 23050E   23124.87215585  .00000011  00000+0  00000+0 0  9997
2 56166  80.9995  84.0838 0007302 133.1282 227.0486 13.84773275  4403
CHECKMATE 7             
1 56167U 23050F   23124.87168821  .00000011  00000+0  00000+0 0  9998
2 56167  81.0031  84.0958 0007590 133.2505 226.9286 13.84793214  4409
CHECKMATE 2             
1 56168U 23050G   23124.87064497  .00000011  00000+0  00000+0 0  9993
2 56168  81.0027  84.0933 0007602 132.0759 228.1045 13.84838498  4401
CHECKMATE 1             
1 56169U 23050H   23124.86957675  .00000011  00000+0  00000+0 0  9992
2 56169  81.0010  84.0877 0007684 131.3051 228.8687 13.84884376  4403
CHECKMATE 3             
1 56170U 23050J   23124.82179210  .00000179  00000+0  15568-3 0  9995
2 56170  81.0008  84.1848 0009793 126.4773 233.7286 13.82336500  4397
BB 1                    
1 56171U 23050K   23122.85663284  .00000189  00000+0  16105-3 0  9995
2 56171  81.0015  86.0364 0010775 128.1144 232.0985 13.83533352  4127
INTELSAT 40E            
1 56174U 23052A   23124.87500000 -.00000159  00000+0  00000+0 0  9991
2 56174   0.0162 181.6560 0001263 244.8449  19.9710  1.00272000   399
IMECE                   
1 56178U 23054A   23124.77456931  .00000525  00000+0  10456-3 0  9995
2 56178  98.2116  20.4743 0008934 145.0738 215.1042 14.66065976  3477
2023-054B               
1 56179U 23054B   23124.68202772  .00007629  00000+0  34467-3 0  9998
2 56179  97.4073  20.2062 0008852 179.5029 267.2131 15.21203462  3560
DEWASAT-2               
1 56180U 23054C   23124.79395782  .00013174  00000+0  58526-3 0  9990
2 56180  97.4136  20.3427 0010407 178.5939 181.5328 15.21611976  3565
KILICSAT                
1 56181U 23054D   23124.94874642  .00011519  00000+0  51239-3 0  9990
2 56181  97.4099  20.4868 0009815 174.7175 313.7611 15.21608021  3599
LEMUR-2-ONREFLECTION    
1 56182U 23054E   23124.79232370  .00016870  00000+0  74434-3 0  9997
2 56182  97.4029  20.3152 0009031 170.1791 189.9623 15.21803073  3570
2023-054F               
1 56183U 23054F   23124.92533576  .00009412  00000+0  42027-3 0  9992
2 56183  97.4054  20.4486 0008761 164.2963 195.8546 15.21539965  3592
SSS-2B                  
1 56184U 23054G   23124.66094856  .00013245  00000+0  58644-3 0  9998
2 56184  97.4163  20.2214 0011190 177.8291 182.2995 15.21718267  3553
BRO-9                   
1 56185U 23054H   23124.67600108  .00010827  00000+0  47967-3 0  9992
2 56185  97.4058  20.2089 0009437 170.3787 274.7906 15.21764402  3557
GHGSAT-C8               
1 56186U 23054J   23124.80078053  .00008689  00000+0  38787-3 0  9999
2 56186  97.4107  20.3438 0010225 174.3042 226.0769 15.21564307  3578
LEMUR-2-SPACEGUS        
1 56187U 23054K   23124.98760164  .00016123  00000+0  70830-3 0  9997
2 56187  97.4036  20.5121 0009179 160.9673 199.1908 15.21959712  3605
CIRBE                   
1 56188U 23054L   23124.78919790  .00015073  00000+0  66096-3 0  9999
2 56188  97.4113  20.3438 0010343 169.3353 190.8105 15.22027079  3570
2023-054M               
1 56189U 23054M   23124.65827806  .00009442  00000+0  41758-3 0  9993
2 56189  97.4128  20.2178 0010715 169.4935 190.6527 15.21850167  3552
NUSAT-36 (ANNIE CANNON) 
1 56190U 23054N   23124.78879336  .00010807  00000+0  47597-3 0  9998
2 56190  97.4061  20.3274 0010261 160.2210 199.9426 15.21960476  3576
HAWK-7A                 
1 56191U 23054P   23124.98343981  .00002144  00000+0  96074-4 0  9993
2 56191  97.4133  20.5488 0012007 163.1800 196.9837 15.22271805  3602
ION SCV-010             
1 56192U 23054Q   23124.85410288  .00006242  00000+0  27685-3 0  9999
2 56192  97.4092  20.4044 0010993 161.9347 198.2282 15.21890342  3586
HAWK-7B                 
1 56193U 23054R   23123.40449655  .00005767  00000+0  25256-3 0  9993
2 56193  97.4068  18.9656 0011944 159.0028 201.1701 15.22348870  3363
2023-054S               
1 56194U 23054S   23124.98266517  .00012370  00000+0  53907-3 0  9994
2 56194  97.4099  20.5395 0011210 161.4711 198.6936 15.22277280  3602
GHOST-1                 
1 56195U 23054T   23124.98364166  .00007709  00000+0  33909-3 0  9994
2 56195  97.4084  20.5317 0011572 158.2886 201.8843 15.22093228  3601
VIGORIDE-6              
1 56196U 23054U   23124.78266122  .00012799  00000+0  55439-3 0  9993
2 56196  97.4089  20.3470 0012071 163.4267 196.7366 15.22467234  3571
GHOST-2                 
1 56197U 23054V   23124.78340080  .00008440  00000+0  36816-3 0  9996
2 56197  97.4082  20.3408 0012405 160.7156 199.4552 15.22337876  3579
UMBRA-06                
1 56198U 23054W   23124.15014393  .00018883  00000+0  10023-2 0  9996
2 56198  97.4083  19.6553 0011769 127.4489 232.7816 15.15318431  3475
TOMMOROW-R1             
1 56199U 23054X   23124.97907377  .00010322  00000+0  44723-3 0  9995
2 56199  97.4099  20.5441 0012431 161.9405 198.2275 15.22506912  3609
HAWK-7C                 
1 56200U 23054Y   23123.74932422  .00217436  00000+0  91620-2 0  9993
2 56200  97.4072  19.3168 0012812 163.5630 287.4662 15.22292351  3415
NUSAT-39 (TIKVAH ALPER) 
1 56201U 23054Z   23124.97739547  .00010416  00000+0  44939-3 0  9994
2 56201  97.4085  20.5406 0013233 161.0909 199.0821 15.22640340  3600
NUSAT-38 (MARIA AGNESI) 
1 56202U 23054AA  23124.78000979  .00010785  00000+0  46497-3 0  9994
2 56202  97.4099  20.3521 0013304 161.6161 198.5559 15.22655992  3574
NUSAT-37 (JOAN CLARKE)  
1 56203U 23054AB  23124.97690304  .00010302  00000+0  44398-3 0  9996
2 56203  97.4064  20.5341 0013360 157.7259 202.4560 15.22678918  3609
GHGSAT-C6               
1 56204U 23054AC  23124.97689771  .00009028  00000+0  38800-3 0  9997
2 56204  97.4126  20.5580 0014184 156.6555 214.4444 15.22801939  3601
2023-054AD              
1 56205U 23054AD  23124.77181536  .00012304  00000+0  51982-3 0  9999
2 56205  97.4121  20.3679 0016039 155.0132 205.1885 15.23270971  3578
LEMUR-2-ROMEO-N-LEO     
1 56206U 23054AE  23124.77196104  .00028840  00000+0  11988-2 0  9990
2 56206  97.4032  20.3409 0014535 153.9341 206.2631 15.23656931  3574
2023-054AF              
1 56207U 23054AF  23124.77274146  .00018309  00000+0  76903-3 0  9992
2 56207  97.4161  20.3786 0015448 159.8991 200.2857 15.23387616  3571
2023-054AG              
1 56208U 23054AG  23124.97195097  .00009945  00000+0  42391-3 0  9992
2 56208  97.4024  20.5305 0014221 149.4479 210.7589 15.23052832  3604
GHGSAT-C7               
1 56209U 23054AH  23124.97507851  .00004346  00000+0  18820-3 0  9998
2 56209  97.4097  20.5506 0014335 151.5512 219.4170 15.22843765  3600
CONNECTA T2.1           
1 56210U 23054AJ  23124.97334525  .00005775  00000+0  24780-3 0  9995
2 56210  97.4046  20.5396 0014889 150.3645 220.2842 15.23007388  3601
INSPIRE-SAT 7           
1 56211U 23054AK  23124.77129075  .00016382  00000+0  68701-3 0  9993
2 56211  97.4142  20.3750 0015851 157.4331 202.7606 15.23458433  3571
ROSEYCUBESAT-1          
1 56212U 23054AL  23124.76967071  .00017314  00000+0  72255-3 0  9994
2 56212  97.4147  20.3789 0016318 157.0011 203.1960 15.23604718  3576
2023-054AM              
1 56213U 23054AM  23124.76972137  .00016220  00000+0  67782-3 0  9998
2 56213  97.4068  20.3553 0015727 151.4275 208.7827 15.23582168  3578
LS3C                    
1 56214U 23054AN  23124.76918649  .00014669  00000+0  61304-3 0  9996
2 56214  97.4095  20.3638 0016188 152.8239 207.3849 15.23594514  3577
VCUB1                   
1 56215U 23054AP  23124.97972087  .00016308  00000+0  69449-3 0  9996
2 56215  97.4101  20.5459 0012572 145.4134 224.3422 15.22981154  3524
ELO-3                   
1 56216U 23054AQ  23117.81962120  .00014346  00000+0  64482-3 0  9991
2 56216  97.4083  13.4739 0007855 176.8690 183.2596 15.21213273  2410
KEPLER-20               
1 56217U 23054AR  23120.71080233  .00010389  00000+0  45446-3 0  9993
2 56217  97.4129  16.3309 0011865 179.7888 180.0869 15.22187599  2953
KEPLER-21               
1 56218U 23054AS  23122.15920661  .00007055  00000+0  31519-3 0  9994
2 56218  97.4057  17.7419 0010214 165.1628 194.7278 15.21603760  3172
FENGYUN 3G              
1 56232U 23055A   23124.99202486  .00032712  00000+0  51843-3 0  9993
2 56232  49.9995 100.1525 0005389   0.9398 104.0753 15.53035381  2942
STARLINK-30096          
1 56286U 23056A   23124.09843870  .01237675  73157-3  31380-2 0  9998
2 56286  42.9946 113.6419 0004020 140.2847 219.8142 15.94765325  3568
STARLINK-30107          
1 56287U 23056B   23125.08334491 -.01231313  00000+0 -27286-1 0  9990
2 56287  43.0013 110.2950 0001153 260.4109 315.3027 15.45849952  2916
STARLINK-30106          
1 56288U 23056C   23125.08334491 -.01231177  00000+0 -27264-1 0  9995
2 56288  43.0013 110.2924 0001150 259.9045 316.8081 15.45869739  2918
STARLINK-30095          
1 56289U 23056D   23124.91668981  .00236235  00000+0  13539-2 0  9999
2 56289  43.0010 109.7090 0001604 200.1415  75.1944 15.77340156  1303
STARLINK-30103          
1 56290U 23056E   23125.08334491 -.01231358  00000+0 -27278-1 0  9994
2 56290  43.0015 110.2938 0001136 258.4595 317.7457 15.45859703  2913
STARLINK-30113          
1 56291U 23056F   23125.08334491 -.01231526  00000+0 -27263-1 0  9996
2 56291  43.0014 110.2912 0001143 261.8526 315.3608 15.45879849  2910
STARLINK-30098          
1 56292U 23056G   23125.08334491 -.01231064  00000+0 -27225-1 0  9992
2 56292  43.0015 110.2876 0001191 252.4354 326.2645 15.45907808  2918
STARLINK-30090          
1 56293U 23056H   23125.08334491 -.01231175  00000+0 -27237-1 0  9999
2 56293  43.0014 110.2892 0001157 259.2013 319.0015 15.45898199  2918
STARLINK-30049          
1 56294U 23056J   23124.91668981 -.00618878  00000+0 -96726-2 0  9993
2 56294  43.0016 110.9698 0001297 258.1768 228.0055 15.55094881  1304
STARLINK-30083          
1 56295U 23056K   23125.08334491  .00172524  00000+0  97194-3 0  9991
2 56295  43.0010 108.6649 0001771 195.9194 319.7295 15.77910507  2937
